[{"OBJECT_NAME":"STARLINK-30274","OBJECT_ID":"2023-124K","EPOCH":"2026-03-09T16:05:44.166912","MEAN_MOTION":15.30190934,"ECCENTRICITY":9.576e-5,"INCLINATION":53.1597,"RA_OF_ASC_NODE":207.0386,"ARG_OF_PERICENTER":90.1599,"MEAN_ANOMALY":269.9511,"EPHEMERIS_TYPE":0,"CLASSIFICATION_TYPE":"U","NORAD_CAT_ID":57672,"ELEMENT_SET_NO":999,"REV_AT_EPOCH":14356,"BSTAR":2.8124994e-5,"MEAN_MOTION_DOT":4.74e-6,"MEAN_MOTION_DDOT":0},{"OBJECT_NAME":"CZ-4B DEB","OBJECT_ID":"1999-057H","EPOCH":"2026-03-09T17:25:29.363520","MEAN_MOTION":15.25756771,"ECCENTRICITY":0.00339549,"INCLINATION":98.6728,"RA_OF_ASC_NODE":149.1557,"ARG_OF_PERICENTER":175.409,"MEAN_ANOMALY":184.7463,"EPHEMERIS_TYPE":0,"CLASSIFICATION_TYPE":"U","NORAD_CAT_ID":26121,"ELEMENT_SET_NO":999,"REV_AT_EPOCH":41150,"BSTAR":0.00075758105,"MEAN_MOTION_DOT":0.00019602,"MEAN_MOTION_DDOT":0}]
